[Satellite]
VERSION=1.1
NAME=GPS BIIF-5  (PRN 30)
NICKNAME=GPS BIIF-5  (PRN 30)
TLE1=1 39533U 14008A   22342.35162704  .00000069  00000+0  00000+0 0  9990
TLE2=2 39533  53.6090 201.7583 0060638 209.0479 150.7047  2.00563318 63874
STATUS=0
